IRIDIUM 171             
1 43929U 19002H   23304.49535638  .00000548  00000+0  18876-3 0  9993
2 43929  86.4022  34.8465 0002272  95.0474 265.0981 14.34219998251406
IRIDIUM 170             
1 43930U 19002J   23304.80088039  .00001932  00000+0  30251-3 0  9997
2 43930  86.6144  34.5737 0002227  97.3710 262.7760 14.72239366258108
IRIDIUM 167             
1 43931U 19002K   23304.48901234  .00000542  00000+0  18647-3 0  9994
2 43931  86.4014  34.6633 0002251  96.9826 263.1626 14.34219965251402
IRIDIUM 181             
1 56726U 23068S   23304.87719028  .00000702  00000+0  20159-3 0  9997
2 56726  86.8611  77.1139 0002804 115.3758 244.7734 14.43577000 24053
IRIDIUM 177             
1 56727U 23068T   23304.58247946  .00002617  00000+0  34095-3 0  9992
2 56727  86.1983  64.3525 0002261  91.1326 269.0154 14.80231386 24416
IRIDIUM 174             
1 56728U 23068U   23304.57704931  .00002798  00000+0  36473-3 0  9996
2 56728  86.1989  64.4401 0002036  89.4560 270.6894 14.80231555 24414
IRIDIUM 178             
1 56729U 23068V   23304.63919773  .00002678  00000+0  34898-3 0  9992
2 56729  86.5776  70.9966 0002216  86.6557 273.4918 14.80232786 24422
IRIDIUM 179             
1 56730U 23068W   23304.63379562  .00003577  00000+0  46751-3 0  9990
2 56730  86.6785  72.2430 0002284  91.0629 269.0854 14.80212144 24427
